0 PACE
1 58928U 24025A   24089.37806812  .00001402  00000-0  26842-3 0  9995
2 58928  98.0905  22.1826 0001281 105.3296 254.8049 14.65335484  7332
0 PACE
1 58928U 24025A   24089.37806812  .00001402  00000-0  26842-3 0  9995
2 58928  98.0905  22.1826 0001281 105.3296 254.8049 14.65335484  7332
0 PACE
1 58928U 24025A   24089.78777465  .00001487  00000-0  28420-3 0  9998
2 58928  98.0905  22.5858 0001286 105.4523 254.6822 14.65337491  7393
0 PACE
1 58928U 24025A   24090.53890435  .00001232  00000-0  23701-3 0  9991
2 58928  98.0905  23.3249 0001323 105.7258 254.4091 14.65338273  7504
0 PACE
1 58928U 24025A   24091.56317023  .00001093  00000-0  21120-3 0  9990
2 58928  98.0906  24.3331 0001374 105.8059 254.3296 14.65340344  7658
0 PACE
1 58928U 24025A   24091.76802313  .00001085  00000-0  20968-3 0  9993
2 58928  98.0906  24.5347 0001371 105.8440 254.2914 14.65340857  7686
0 PACE
1 58928U 24025A   24091.76802321  .00001065  00000-0  20606-3 0  9999
2 58928  98.0906  24.5347 0001359 105.9086 254.2267 14.65340718  7686
0 PACE
1 58928U 24025A   24092.58743457  .00001010  00000-0  19585-3 0  9998
2 58928  98.0907  25.3411 0001400 105.8456 254.2902 14.65342437  7805
0 PACE
1 58928U 24025A   24092.79228720  .00001004  00000-0  19469-3 0  9996
2 58928  98.0907  25.5427 0001395 105.7854 254.3503 14.65342917  7832
0 PACE
1 58928U 24025A   24093.54341347  .00000918  00000-0  17880-3 0  9999
2 58928  98.0908  26.2820 0001416 105.6881 254.4479 14.65344118  7941
0 PACE
1 58928U 24025A   24093.81654999  .00000911  00000-0  17756-3 0  9994
2 58928  98.0908  26.5508 0001391 105.8578 254.2778 14.65344706  7981
0 PACE
1 58928U 24025A   24093.81654999  .00000911  00000-0  17756-3 0  9994
2 58928  98.0908  26.5508 0001391 105.8578 254.2778 14.65344706  7981
0 PACE
1 58928U 24025A   24094.36282315  .00000850  00000-0  16617-3 0  9991
2 58928  98.0909  27.0884 0001426 105.5531 254.5830 14.65345506  8061
0 PACE
1 58928U 24025A   24094.77252763  .00000832  00000-0  16287-3 0  9993
2 58928  98.0909  27.4917 0001438 105.5390 254.5972 14.65346261  8121
0 PACE
1 58928U 24025A   24095.38708441  .00000734  00000-0  14479-3 0  9992
2 58928  98.0910  28.0965 0001451 105.3110 254.8254 14.65346833  8217
0 PACE
1 58928U 24025A   24095.38708441  .00000734  00000-0  14479-3 0  9992
2 58928  98.0910  28.0965 0001451 105.3110 254.8254 14.65346833  8217
0 PACE
1 58928U 24025A   24095.79678828  .00000712  00000-0  14070-3 0  9995
2 58928  98.0910  28.4998 0001450 105.4560 254.6804 14.65347538  8274
0 PACE
1 58928U 24025A   24096.54791200  .00000683  00000-0  13527-3 0  9992
2 58928  98.0911  29.2391 0001465 105.3824 254.7542 14.65348699  8380
0 PACE
1 58928U 24025A   24096.54791200  .00000683  00000-0  13527-3 0  9992
2 58928  98.0911  29.2391 0001465 105.3824 254.7542 14.65348699  8380
0 PACE
1 58928U 24025A   24096.82104767  .00000671  00000-0  13304-3 0  9999
2 58928  98.0911  29.5079 0001469 105.3514 254.7851 14.65349148  8424
0 PACE
1 58928U 24025A   24097.57217069  .00000692  00000-0  13695-3 0  9998
2 58928  98.0913  30.2473 0001495 105.0612 255.0757 14.65350478  8537
0 PACE
1 58928U 24025A   24097.77702228  .00000688  00000-0  13613-3 0  9991
2 58928  98.0913  30.4489 0001495 104.9646 255.1723 14.65350804  8561
0 PACE
1 58928U 24025A   24097.77702228  .00000688  00000-0  13613-3 0  9991
2 58928  98.0913  30.4489 0001495 104.9646 255.1723 14.65350804  8561
0 PACE
1 58928U 24025A   24098.52814478  .00000745  00000-0  14664-3 0  9997
2 58928  98.0914  31.1882 0001528 104.6239 255.5133 14.65352177  8675
0 PACE
1 58928U 24025A   24099.55240141  .00000790  00000-0  15507-3 0  9998
2 58928  98.0915  32.1963 0001539 104.2180 255.9194 14.65353994  8826
0 PACE
1 58928U 24025A   24099.55240144  .00000755  00000-0  14850-3 0  9992
2 58928  98.0915  32.1963 0001540 104.2324 255.9050 14.65353798  8821
0 PACE
1 58928U 24025A   24100.57665687  .00000790  00000-0  15511-3 0  9994
2 58928  98.0915  33.2046 0001579 103.8917 256.2462 14.65355610  8972
0 PACE
1 58928U 24025A   24100.57665687  .00000790  00000-0  15511-3 0  9994
2 58928  98.0915  33.2046 0001579 103.8916 256.2463 14.65355610  8972
0 PACE
1 58928U 24025A   24101.53262764  .00000732  00000-0  14428-3 0  9992
2 58928  98.0916  34.1455 0001600 103.3725 256.7657 14.65356796  9118
0 PACE
1 58928U 24025A   24101.80576191  .00000728  00000-0  14351-3 0  9994
2 58928  98.0916  34.4143 0001598 103.3321 256.8060 14.65357235  9155
0 PACE
1 58928U 24025A   24102.55688083  .00000782  00000-0  15360-3 0  9992
2 58928  98.0917  35.1537 0001638 102.8448 257.2938 14.65358745  9268
0 PACE
1 58928U 24025A   24102.83001462  .00000765  00000-0  15034-3 0  9992
2 58928  98.0918  35.4226 0001621 102.7035 257.4350 14.65359166  9303
0 PACE
1 58928U 24025A   24102.83001462  .00000765  00000-0  15034-3 0  9992
2 58928  98.0918  35.4226 0001621 102.7035 257.4350 14.65359166  9303
0 PACE
1 58928U 24025A   24103.37628224  .00000784  00000-0  15396-3 0  9995
2 58928  98.0918  35.9603 0001634 102.3771 257.7615 14.65360201  9381
0 PACE
1 58928U 24025A   24104.40053286  .00000867  00000-0  16929-3 0  9995
2 58928  98.0919  36.9685 0001652 101.8289 258.3100 14.65362444  9535
0 PACE
1 58928U 24025A   24104.40053286  .00000867  00000-0  16929-3 0  9995
2 58928  98.0919  36.9685 0001652 101.8289 258.3100 14.65362444  9535
0 PACE
1 58928U 24025A   24104.81023261  .00000906  00000-0  17646-3 0  9991
2 58928  98.0918  37.3718 0001652 101.5650 258.5739 14.65363432  9599
0 PACE
1 58928U 24025A   24105.42478186  .00000992  00000-0  19234-3 0  9999
2 58928  98.0918  37.9767 0001664 101.2133 258.9257 14.65365062  9685
0 PACE
1 58928U 24025A   24105.83448071  .00001152  00000-0  22197-3 0  9995
2 58928  98.0919  38.3800 0001662 100.8893 259.2497 14.65366832  9748
0 PACE
1 58928U 24025A   24106.38074573  .00001173  00000-0  22585-3 0  9992
2 58928  98.0919  38.9178 0001678 100.7379 259.4013 14.65368091  9821
0 PACE
1 58928U 24025A   24106.79044406  .00001208  00000-0  23229-3 0  9994
2 58928  98.0919  39.3211 0001679 100.4604 259.6789 14.65369192  9884
